$$SOE
2460721.500000000, A.D. 2025-Feb-15 00:00:00.0000, 5.002551083605187E+07, -4.278291699002767E+08, 3.523742429431140E+06,
2460728.500000000, A.D. 2025-Feb-22 00:00:00.0000, 6.068888131688674E+07, -4.248125502843937E+08, 3.469679668031901E+06,
2460735.500000000, A.D. 2025-Mar-01 00:00:00.0000, 7.131496518920258E+07, -4.215350631829963E+08, 3.413485773909777E+06,
2460742.500000000, A.D. 2025-Mar-08 00:00:00.0000, 8.189674478329079E+07, -4.179958022435614E+08, 3.355171303492814E+06,
2460749.500000000, A.D. 2025-Mar-15 00:00:00.0000, 9.242708239998052E+07, -4.141940602692745E+08, 3.294748855909139E+06,
2460756.500000000, A.D. 2025-Mar-22 00:00:00.0000, 1.028987235198594E+08, -4.101293378890793E+08, 3.232233380305827E+06,
2460763.500000000, A.D. 2025-Mar-29 00:00:00.0000, 1.133043020029079E+08, -4.058013544511639E+08, 3.167642172335267E+06,
2460770.500000000, A.D. 2025-Apr-05 00:00:00.0000, 1.236363476229853E+08, -4.012100579615201E+08, 3.100994785774946E+06,
2460777.500000000, A.D. 2025-Apr-12 00:00:00.0000, 1.338872940273092E+08, -3.963556339207420E+08, 3.032313043808043E+06,
2460784.500000000, A.D. 2025-Apr-19 00:00:00.0000, 1.440494869468642E+08, -3.912385138940341E+08, 2.961621094444305E+06,
2460791.500000000, A.D. 2025-Apr-26 00:00:00.0000, 1.541151929394525E+08, -3.858593839681811E+08, 2.888945467906892E+06,
2460798.500000000, A.D. 2025-May-03 00:00:00.0000, 1.640766087854904E+08, -3.802191930244567E+08, 2.814315126474023E+06,
2460805.500000000, A.D. 2025-May-10 00:00:00.0000, 1.739258715675264E+08, -3.743191607644053E+08, 2.737761504194498E+06,
2460812.500000000, A.D. 2025-May-17 00:00:00.0000, 1.836550694685291E+08, -3.681607854728916E+08, 2.659318529084980E+06,
2460819.500000000, A.D. 2025-May-24 00:00:00.0000, 1.932562534568902E+08, -3.617458515150979E+08, 2.579022606873050E+06,
2460826.500000000, A.D. 2025-May-31 00:00:00.0000, 2.027214502643964E+08, -3.550764361983723E+08, 2.496912553068697E+06,
2460833.500000000, A.D. 2025-Jun-07 00:00:00.0000, 2.120426762377509E+08, -3.481549147348096E+08, 2.413029608326972E+06,
2460840.500000000, A.D. 2025-Jun-14 00:00:00.0000, 2.212119496736630E+08, -3.409839639088318E+08, 2.327417698916286E+06,
2460847.500000000, A.D. 2025-Jun-21 00:00:00.0000, 2.302213028243591E+08, -3.335665676552658E+08, 2.240123562412128E+06,
2460854.500000000, A.D. 2025-Jun-28 00:00:00.0000, 2.390627966698167E+08, -3.259060227193116E+08, 2.151196595097616E+06,
2460861.500000000, A.D. 2025-Jul-05 00:00:00.0000, 2.477285369039988E+08, -3.180059421840166E+08, 2.060688736079827E+06,
2460868.500000000, A.D. 2025-Jul-12 00:00:00.0000, 2.562106899005676E+08, -3.098702576172510E+08, 1.968654431506068E+06,
2460875.500000000, A.D. 2025-Jul-19 00:00:00.0000, 2.645014987957150E+08, -3.015032203626050E+08, 1.875150614534736E+06,
2460882.500000000, A.D. 2025-Jul-26 00:00:00.0000, 2.725932998382860E+08, -2.929094019822422E+08, 1.780236677204043E+06,
2460889.500000000, A.D. 2025-Aug-02 00:00:00.0000, 2.804785390058603E+08, -2.840936937839657E+08, 1.683974429939389E+06,
2460896.500000000, A.D. 2025-Aug-09 00:00:00.0000, 2.881497888372076E+08, -2.750613054041364E+08, 1.586428045264184E+06,
2460903.500000000, A.D. 2025-Aug-16 00:00:00.0000, 2.955997654796980E+08, -2.658177624702435E+08, 1.487663973324075E+06,
2460910.500000000, A.D. 2025-Aug-23 00:00:00.0000, 3.028213461627426E+08, -2.563689032920788E+08, 1.387750803678036E+06,
2460917.500000000, A.D. 2025-Aug-30 00:00:00.0000, 3.098075873433887E+08, -2.467208738410974E+08, 1.286759101893291E+06,
2460924.500000000, A.D. 2025-Sep-06 00:00:00.0000, 3.165517420205720E+08, -2.368801200020905E+08, 1.184761433432057E+06,
2460931.500000000, A.D. 2025-Sep-13 00:00:00.0000, 3.230472744564605E+08, -2.268533795729972E+08, 1.081832525612041E+06,
2460938.500000000, A.D. 2025-Sep-20 00:00:00.0000, 3.292878754834272E+08, -2.166476756560843E+08, 9.780491332376003E+05,
2460945.500000000, A.D. 2025-Sep-27 00:00:00.0000, 3.352674793608915E+08, -2.062703083364842E+08, 8.734897655314803E+05,
2460952.500000000, A.D. 2025-Oct-04 00:00:00.0000, 3.409802800713578E+08, -1.957288441271589E+08, 7.682345040745139E+05,
2460959.500000000, A.D. 2025-Oct-11 00:00:00.0000, 3.464207465875983E+08, -1.850311041507630E+08, 6.623648696082383E+05,
2460966.500000000, A.D. 2025-Oct-18 00:00:00.0000, 3.515836373012301E+08, -1.741851513687162E+08, 5.559636898638085E+05,
2460973.500000000, A.D. 2025-Oct-25 00:00:00.0000, 3.564640136613984E+08, -1.631992768909543E+08, 4.491149571205676E+05,
2460980.500000000, A.D. 2025-Nov-01 00:00:00.0000, 3.610572529759917E+08, -1.520819854041333E+08, 3.419036737600639E+05,
2460987.500000000, A.D. 2025-Nov-08 00:00:00.0000, 3.653590603273979E+08, -1.408419798117384E+08, 2.344156806668937E+05,
2460994.500000000, A.D. 2025-Nov-15 00:00:00.0000, 3.693654796725957E+08, -1.294881452146657E+08, 1.267374505870789E+05,
2461001.500000000, A.D. 2025-Nov-22 00:00:00.0000, 3.730729044578237E+08, -1.180295320881298E+08, 1.895582790490240E+04,
2461008.500000000, A.D. 2025-Nov-29 00:00:00.0000, 3.764780875322173E+08, -1.064753376016621E+08, -8.884217754016817E+04,
2461015.500000000, A.D. 2025-Dec-06 00:00:00.0000, 3.795781480320683E+08, -9.483488530919930E+07, -1.965693436658159E+05,
2461022.500000000, A.D. 2025-Dec-13 00:00:00.0000, 3.823705756237403E+08, -8.311760667777994E+07, -3.041382508730106E+05,
2461029.500000000, A.D. 2025-Dec-20 00:00:00.0000, 3.848532355583029E+08, -7.133302353083901E+07, -4.114615945798270E+05,
2461036.500000000, A.D. 2025-Dec-27 00:00:00.0000, 3.870243734359654E+08, -5.949072891567254E+07, -5.184524844502620E+05,
2461043.500000000, A.D. 2026-Jan-03 00:00:00.0000, 3.888826182048225E+08, -4.760036711465781E+07, -6.250246457428783E+05,
2461050.500000000, A.D. 2026-Jan-10 00:00:00.0000, 3.904269834972776E+08, -3.567161358444117E+07, -7.310925873053689E+05,
2461057.500000000, A.D. 2026-Jan-17 00:00:00.0000, 3.916568675401720E+08, -2.371415501952578E+07, -8.365717640243992E+05,
2461064.500000000, A.D. 2026-Jan-24 00:00:00.0000, 3.925720517301983E+08, -1.173766962096790E+07, -9.413787380141923E+05,
2461071.500000000, A.D. 2026-Jan-31 00:00:00.0000, 3.931726979219024E+08, 2.481923213178208E+05, -1.045431340293870E+06,
2461078.500000000, A.D. 2026-Feb-07 00:00:00.0000, 3.934593445234475E+08, 1.223382737687887E+07, -1.148648842334097E+06,
2461085.500000000, A.D. 2026-Feb-14 00:00:00.0000, 3.934329016947894E+08, 2.420969734272663E+07, -1.250952161227869E+06,
2461092.500000000, A.D. 2026-Feb-21 00:00:00.0000, 3.930946460820700E+08, 3.616634751704084E+07, -1.352264086463822E+06,
2461099.500000000, A.D. 2026-Feb-28 00:00:00.0000, 3.924462140558859E+08, 4.809442594965338E+07, -1.452509333941307E+06,
2461106.500000000, A.D. 2026-Mar-07 00:00:00.0000, 3.914895914585836E+08, 5.998470164374876E+07, -1.551614397015985E+06,
2461113.500000000, A.D. 2026-Mar-14 00:00:00.0000, 3.902271027042999E+08, 7.182807930532141E+07, -1.649507639637034E+06,
2461120.500000000, A.D. 2026-Mar-21 00:00:00.0000, 3.886614010846251E+08, 8.361561347834712E+07, -1.746119558072705E+06,
2461127.500000000, A.D. 2026-Mar-28 00:00:00.0000, 3.867954583495140E+08, 9.533852304426266E+07, -1.841382942149032E+06,
2461134.500000000, A.D. 2026-Apr-04 00:00:00.0000, 3.846325530456554E+08, 1.069882050758595E+08, -1.935232958814263E+06,
2461141.500000000, A.D. 2026-Apr-11 00:00:00.0000, 3.821762579736460E+08, 1.185562476472186E+08, -2.027607212105274E+06,
2461148.500000000, A.D. 2026-Apr-18 00:00:00.0000, 3.794304270098488E+08, 1.300344415620375E+08, -2.118445794457622E+06,
2461155.500000000, A.D. 2026-Apr-25 00:00:00.0000, 3.763991814241996E+08, 1.414147909926787E+08, -2.207691332292929E+06,
2461162.500000000, A.D. 2026-May-02 00:00:00.0000, 3.730868958091751E+08, 1.526895229867402E+08, -2.295289031119846E+06,
2461169.500000000, A.D. 2026-May-09 00:00:00.0000, 3.694981838282945E+08, 1.638510957696081E+08, -2.381186737052821E+06,
2461176.500000000, A.D. 2026-May-16 00:00:00.0000, 3.656378842444373E+08, 1.748922059827767E+08, -2.465335038362339E+06,
2461183.500000000, A.D. 2026-May-23 00:00:00.0000, 3.615110473573886E+08, 1.858057958872717E+08, -2.547687328726269E+06,
2461190.500000000, A.D. 2026-May-30 00:00:00.0000, 3.571229198445429E+08, 1.965850608676895E+08, -2.628199615576461E+06,
2461197.500000000, A.D. 2026-Jun-06 00:00:00.0000, 3.524789277622755E+08, 2.072234539880626E+08, -2.706830311987966E+06,
2461204.500000000, A.D. 2026-Jun-13 00:00:00.0000, 3.475846614459141E+08, 2.177146878239294E+08, -2.783540332886666E+06,
2461211.500000000, A.D. 2026-Jun-20 00:00:00.0000, 3.424458618693005E+08, 2.280527365255827E+08, -2.858293211359516E+06,
2461218.500000000, A.D. 2026-Jun-27 00:00:00.0000, 3.370684068231094E+08, 2.382318378079190E+08, -2.931055107689247E+06,
2461225.500000000, A.D. 2026-Jul-04 00:00:00.0000, 3.314582969660795E+08, 2.482464941311822E+08, -3.001794775097102E+06,
2461232.500000000, A.D. 2026-Jul-11 00:00:00.0000, 3.256216420525634E+08, 2.580914729824944E+08, -3.070483516999185E+06,
2461239.500000000, A.D. 2026-Jul-18 00:00:00.0000, 3.195646474733838E+08, 2.677618063279370E+08, -3.137095142920852E+06,
2461246.500000000, A.D. 2026-Jul-25 00:00:00.0000, 3.132936011735554E+08, 2.772527892837583E+08, -3.201605925794944E+06,
2461253.500000000, A.D. 2026-Aug-01 00:00:00.0000, 3.068148610291166E+08, 2.865599780059067E+08, -3.263994569641814E+06,
2461260.500000000, A.D. 2026-Aug-08 00:00:00.0000, 3.001348429275673E+08, 2.956791868104506E+08, -3.324242210881025E+06,
2461267.500000000, A.D. 2026-Aug-15 00:00:00.0000, 2.932600099925991E+08, 3.046064850237287E+08, -3.382332455210075E+06,
2461274.500000000, A.D. 2026-Aug-22 00:00:00.0000, 2.861968622119492E+08, 3.133381948295610E+08, -3.438251281160027E+06,
2461281.500000000, A.D. 2026-Aug-29 00:00:00.0000, 2.789519241914648E+08, 3.218708887872626E+08, -3.491986712787807E+06,
2461288.500000000, A.D. 2026-Sep-05 00:00:00.0000, 2.715317331809230E+08, 3.302013842030412E+08, -3.543528691709623E+06,
$$EOE